[{"OBJECT_NAME":"OBJECT B","OBJECT_ID":"2022-023B","EPOCH":"2026-03-09T22:47:53.401632","MEAN_MOTION":15.18262382,"ECCENTRICITY":0.00937159,"INCLINATION":63.476,"RA_OF_ASC_NODE":246.6999,"ARG_OF_PERICENTER":346.6129,"MEAN_ANOMALY":13.2499,"EPHEMERIS_TYPE":0,"CLASSIFICATION_TYPE":"U","NORAD_CAT_ID":51947,"ELEMENT_SET_NO":999,"REV_AT_EPOCH":22265,"BSTAR":0.00086643699,"MEAN_MOTION_DOT":0.00019848,"MEAN_MOTION_DDOT":0},{"OBJECT_NAME":"SPACEMOBILE-003 DEB","OBJECT_ID":"2024-163H","EPOCH":"2026-03-09T06:41:58.685280","MEAN_MOTION":15.36819258,"ECCENTRICITY":0.00083408,"INCLINATION":52.9732,"RA_OF_ASC_NODE":23.5908,"ARG_OF_PERICENTER":178.9597,"MEAN_ANOMALY":181.1423,"EPHEMERIS_TYPE":0,"CLASSIFICATION_TYPE":"U","NORAD_CAT_ID":62371,"ELEMENT_SET_NO":999,"REV_AT_EPOCH":7650,"BSTAR":0.00066898372,"MEAN_MOTION_DOT":0.00024141,"MEAN_MOTION_DDOT":0}]
